{
    "links": {
        "self": "http://www.neowsapp.com/rest/v1/neo/3789688?api_key=iIulBulltgU6a56xZRHN4H3l9WmuAYTsLGpBGhQ2"
    },
    "id": "3789688",
    "neo_reference_id": "3789688",
    "name": "(2017 WP15)",
    "designation": "2017 WP15",
    "nasa_jpl_url": "http://ssd.jpl.nasa.gov/sbdb.cgi?sstr=3789688",
    "absolute_magnitude_h": 24.7,
    "estimated_diameter": {
        "kilometers": {
            "estimated_diameter_min": 0.0305179233,
            "estimated_diameter_max": 0.0682401509
        },
        "meters": {
            "estimated_diameter_min": 30.5179232594,
            "estimated_diameter_max": 68.2401509401
        },
        "miles": {
            "estimated_diameter_min": 0.0189629525,
            "estimated_diameter_max": 0.0424024508
        },
        "feet": {
            "estimated_diameter_min": 100.1244233463,
            "estimated_diameter_max": 223.8850168104
        }
    },
    "is_potentially_hazardous_asteroid": false,
    "close_approach_data": [
        {
            "close_approach_date": "2017-12-02",
            "close_approach_date_full": "2017-Dec-02 03:30",
            "epoch_date_close_approach": 1512185400000,
            "relative_velocity": {
                "kilometers_per_second": "20.4216574889",
                "kilometers_per_hour": "73517.9669598697",
                "miles_per_hour": "45681.2056368146"
            },
            "miss_distance": {
                "astronomical": "0.082662273",
                "lunar": "32.155624197",
                "kilometers": "12366099.97015851",
                "miles": "7683938.212507038"
            },
            "orbiting_body": "Earth"
        }
    ],
    "orbital_data": {
        "orbit_id": "2",
        "orbit_determination_date": "2019-07-19 05:26:32",
        "first_observation_date": "2017-11-24",
        "last_observation_date": "2017-11-26",
        "data_arc_in_days": 2,
        "observations_used": 29,
        "orbit_uncertainty": "9",
        "minimum_orbit_intersection": ".0826374",
        "jupiter_tisserand_invariant": "3.822",
        "epoch_osculation": "2458082.5",
        "eccentricity": ".459989509305046",
        "semi_major_axis": "1.754350287411814",
        "inclination": "33.92088544208474",
        "ascending_node_longitude": "66.85751559973777",
        "orbital_period": "848.7365311445549",
        "perihelion_distance": ".9473675595560875",
        "perihelion_argument": "52.16184613398043",
        "aphelion_distance": "2.561333015267541",
        "perihelion_time": "2458130.314235761977",
        "mean_anomaly": "339.7191186632451",
        "mean_motion": ".4241598974354571",
        "equinox": "J2000",
        "orbit_class": {
            "orbit_class_type": "APO",
            "orbit_class_description": "Near-Earth asteroid orbits which cross the Earth’s orbit similar to that of 1862 Apollo",
            "orbit_class_range": "a (semi-major axis) > 1.0 AU; q (perihelion) < 1.017 AU"
        }
    },
    "is_sentry_object": false
}